LEMUR-2-ANDIS           
1 42838U 17042P   26068.55941107  .00023598  00000+0  79875-3 0  9998
2 42838  97.3659 249.7950 0009101   4.3248 355.8070 15.30557934473198
STARLINK-31505          
1 59237U 24049G   26068.41606508  .00001744  00000+0  72801-4 0  9994
2 59237  43.0013 145.1422 0001486 273.5446  86.5236 15.27615839112368
